NORAD_CAT_ID,OBJECT_NAME,OBJECT_TYPE,EPOCH,MEAN_MOTION,ECCENTRICITY,INCLINATION,RA_OF_ASC_NODE,ARG_OF_PERICENTER,MEAN_ANOMALY,BSTAR,MEAN_MOTION_DOT,MEAN_MOTION_DDOT,TLE_LINE0,TLE_LINE1,TLE_LINE2,SEMIMAJOR_AXIS,PERIOD,APOGEE,PERIGEE,DECAYED
49460.0,STARLINK-3140,PAYLOAD,2022-11-12 06:21:04,15.08851959,0.0002442,53.217,266.4103,34.7838,325.3313,0.00026749,3.973e-05,0.0,0 STARLINK-3140,1 49460U 21104BE  22316.26464018  .00003973  00000-0  26749-3 0  9999,2 49460  53.2170 266.4103 0002442  34.7838 325.3313 15.08851959 55584,6917.844,95.437,541.398,538.019,0.0
49460.0,STARLINK-3140,PAYLOAD,2022-11-13 03:01:06,15.08845754,0.000259,53.2164,262.5449,41.1563,318.9625,0.00028687,4.281e-05,0.0,0 STARLINK-3140,1 49460U 21104BE  22317.12576966  .00004281  00000-0  28687-3 0  9997,2 49460  53.2164 262.5449 0002590  41.1563 318.9625 15.08845754 56804,6917.863,95.437,541.52,537.936,0.0
49460.0,STARLINK-3140,PAYLOAD,2022-11-13 06:11:53,15.08835105,0.000247,53.2167,261.9507,30.6502,329.4634,0.00010632,1.404e-05,0.0,0 STARLINK-3140,1 49460U 21104BE  22317.25825427  .00001404  00000-0  10632-3 0  9995,2 49460  53.2167 261.9507 0002470  30.6502 329.4634 15.08835105 56826,6917.895,95.438,541.469,538.052,0.0
49460.0,STARLINK-3140,PAYLOAD,2022-11-14 06:02:40,15.08838116,0.0002477,53.2174,257.4908,31.8871,328.2271,-0.00010233,-1.917e-05,0.0,0 STARLINK-3140,1 49460U 21104BE  22318.25185846 -.00001917  00000-0 -10233-3 0  9998,2 49460  53.2174 257.4908 0002477  31.8871 328.2271 15.08838116 55882,6917.886,95.438,541.465,538.038,0.0
49460.0,STARLINK-3140,PAYLOAD,2022-11-15 02:42:40,15.08834416,0.0002615,53.217,253.6237,30.8631,329.2515,0.00010174,1.331e-05,0.0,0 STARLINK-3140,1 49460U 21104BE  22319.11297336  .00001331  00000-0  10174-3 0  9994,2 49460  53.2170 253.6237 0002615  30.8631 329.2515 15.08834416 57106,6917.897,95.438,541.571,537.953,0.0
49460.0,STARLINK-3140,PAYLOAD,2022-11-15 12:14:59,15.08834708,0.0002656,53.2173,251.8394,32.841,327.2746,9.0899e-05,1.158e-05,0.0,0 STARLINK-3140,1 49460U 21104BE  22319.51041568  .00001158  00000-0  90899-4 0  9992,2 49460  53.2173 251.8394 0002656  32.8410 327.2746 15.08834708 56078,6917.897,95.438,541.599,537.924,0.0
49460.0,STARLINK-3140,PAYLOAD,2022-11-15 18:36:32,15.08836767,0.0002554,53.2166,250.6512,32.6369,327.478,9.9769e-05,1.3e-05,0.0,0 STARLINK-3140,1 49460U 21104BE  22319.77537470  .00001300  00000-0  99769-4 0  9996,2 49460  53.2166 250.6512 0002554  32.6369 327.4780 15.08836767 56119,6917.89,95.438,541.5219999999998,537.988,0.0
49460.0,STARLINK-3140,PAYLOAD,2022-11-16 00:58:05,15.08828445,0.000242,53.2168,249.4607,33.3726,326.7418,0.00011512,1.544e-05,0.0,0 STARLINK-3140,1 49460U 21104BE  22320.04033974  .00001544  00000-0  11512-3 0  9997,2 49460  53.2168 249.4607 0002420  33.3726 326.7418 15.08828445 57248,6917.916,95.438,541.455,538.107,0.0
49460.0,STARLINK-3140,PAYLOAD,2022-11-16 12:05:46,15.08837899,0.0002414,53.2168,247.3802,33.1421,326.9722,0.0001168,1.571e-05,0.0,0 STARLINK-3140,1 49460U 21104BE  22320.50401532  .00001571  00000-0  11680-3 0  9993,2 49460  53.2168 247.3802 0002414  33.1421 326.9722 15.08837899 57316,6917.887,95.438,541.422,538.082,0.0
49460.0,STARLINK-3140,PAYLOAD,2022-11-16 18:27:19,15.08836033,0.0002565,53.217,246.1912,34.6381,325.4778,-1.5879e-05,-5.41e-06,0.0,0 STARLINK-3140,1 49460U 21104BE  22320.76898046 -.00000541  00000-0 -15879-4 0  9994,2 49460  53.2170 246.1912 0002565  34.6381 325.4778 15.08836033 56263,6917.893,95.438,541.5319999999998,537.9830000000002,0.0
49460.0,STARLINK-3140,PAYLOAD,2022-11-17 03:59:38,15.08851156,0.0002423,53.2171,244.4073,36.5336,323.5821,-0.00013405,-2.422e-05,0.0,0 STARLINK-3140,1 49460U 21104BE  22321.16641570 -.00002422  00000-0 -13405-3 0  9999,2 49460  53.2171 244.4073 0002423  36.5336 323.5821 15.08851156 56325,6917.846,95.437,541.387,538.035,0.0
49460.0,STARLINK-3140,PAYLOAD,2022-11-17 23:04:15,15.08844017,0.0002439,53.2175,240.8393,36.279,323.8368,8.598799999999999e-05,1.081e-05,0.0,0 STARLINK-3140,1 49460U 21104BE  22321.96129223  .00001081  00000-0  85988-4 0  9997,2 49460  53.2175 240.8393 0002439  36.2790 323.8368 15.08844017 57533,6917.868,95.437,541.42,538.0459999999998,0.0
49460.0,STARLINK-3140,PAYLOAD,2022-11-18 11:47:20,15.08849279,0.0002434,53.217,238.4591,34.079,326.0358,7.4822e-05,9.03e-06,0.0,0 STARLINK-3140,1 49460U 21104BE  22322.49120800  .00000903  00000-0  74822-4 0  9995,2 49460  53.2170 238.4591 0002434  34.0790 326.0358 15.08849279 56529,6917.852,95.437,541.401,538.033,0.0
49460.0,STARLINK-3140,PAYLOAD,2022-11-19 03:41:12,15.08838151,0.0002459,53.2168,235.4859,34.5704,325.5447,4.1666e-05,3.75e-06,0.0,0 STARLINK-3140,1 49460U 21104BE  22323.15361580  .00000375  00000-0  41666-4 0  9994,2 49460  53.2168 235.4859 0002459  34.5704 325.5447 15.08838151 57719,6917.886,95.438,541.452,538.05,0.0
49460.0,STARLINK-3140,PAYLOAD,2022-11-19 11:38:08,15.08833275,0.0002442,53.2164,233.9987,34.1758,325.939,3.0173000000000007e-06,-2.4e-06,0.0,0 STARLINK-3140,1 49460U 21104BE  22323.48482020 -.00000240  00000-0  30173-5 0  9997,2 49460  53.2164 233.9987 0002442  34.1758 325.9390 15.08833275 56674,6917.901,95.438,541.455,538.077,0.0
49460.0,STARLINK-3140,PAYLOAD,2022-11-20 00:21:12,15.08844669,0.0002576,53.2165,231.6206,32.2637,327.8512,2.8349000000000013e-05,1.63e-06,0.0,0 STARLINK-3140,1 49460U 21104BE  22324.01473095  .00000163  00000-0  28349-4 0  9993,2 49460  53.2165 231.6206 0002576  32.2637 327.8512 15.08844669 56752,6917.866,95.437,541.513,537.9490000000002,0.0
49460.0,STARLINK-3140,PAYLOAD,2022-11-20 21:01:13,15.08839999,0.0002575,53.2171,227.7545,34.2417,325.874,3.6201e-05,2.88e-06,0.0,0 STARLINK-3140,1 49460U 21104BE  22324.87585267  .00000288  00000-0  36201-4 0  9996,2 49460  53.2171 227.7545 0002575  34.2417 325.8740 15.08839999 57974,6917.88,95.438,541.5269999999998,537.964,0.0
49460.0,STARLINK-3140,PAYLOAD,2022-11-21 03:22:46,15.08834835,0.0002586,53.2168,226.564,36.6704,323.4465,-4.4259e-05,-9.93e-06,0.0,0 STARLINK-3140,1 49460U 21104BE  22325.14081875 -.00000993  00000-0 -44259-4 0  9990,2 49460  53.2168 226.5640 0002586  36.6704 323.4465 15.08834835 58018,6917.896,95.438,541.55,537.972,0.0
49460.0,STARLINK-3140,PAYLOAD,2022-11-22 03:13:33,15.08835122,0.0002631999999999,53.2172,222.1043,36.8728,323.2445,-1.8918e-06,-3.19e-06,0.0,0 STARLINK-3140,1 49460U 21104BE  22326.13441965 -.00000319  00000-0 -18918-5 0  9996,2 49460  53.2172 222.1043 0002632  36.8728 323.2445 15.08835122 57073,6917.895,95.438,541.581,537.94,0.0
49460.0,STARLINK-3140,PAYLOAD,2022-11-22 17:32:01,15.08834319,0.0002633,53.2165,219.4278,36.3298,323.7873,9.8899e-05,1.286e-05,0.0,0 STARLINK-3140,1 49460U 21104BE  22326.73057702  .00001286  00000-0  98899-4 0  9991,2 49460  53.2165 219.4278 0002633  36.3298 323.7873 15.08834319 58250,6917.898,95.438,541.5840000000002,537.941,0.0
49460.0,STARLINK-3140,PAYLOAD,2022-11-22 20:42:48,15.08831485,0.0002597,53.2167,218.8333,35.196,324.9204,7.0254e-05,8.3e-06,0.0,0 STARLINK-3140,1 49460U 21104BE  22326.86305966  .00000830  00000-0  70254-4 0  9992,2 49460  53.2167 218.8333 0002597  35.1960 324.9204 15.08831485 57182,6917.906,95.438,541.568,537.975,0.0
49460.0,STARLINK-3140,PAYLOAD,2022-11-23 03:04:21,15.08827422,0.0002617,53.2166,217.6437,34.2492,325.8668,2.6572e-05,1.34e-06,0.0,0 STARLINK-3140,1 49460U 21104BE  22327.12802546  .00000134  00000-0  26572-4 0  9999,2 49460  53.2166 217.6437 0002617  34.2492 325.8668 15.08827422 58312,6917.919,95.438,541.594,537.9730000000002,0.0
49460.0,STARLINK-3140,PAYLOAD,2022-11-23 09:25:53,15.08831787,0.0002641,53.2165,216.4547,35.1436,324.973,6.2931e-05,7.13e-06,0.0,0 STARLINK-3140,1 49460U 21104BE  22327.39298342  .00000713  00000-0  62931-4 0  9993,2 49460  53.2165 216.4547 0002641  35.1436 324.9730 15.08831787 57267,6917.905,95.438,541.5980000000002,537.943,0.0
49460.0,STARLINK-3140,PAYLOAD,2022-11-23 17:22:49,15.08832319,0.0002543,53.2169,214.9674,38.904,321.2135,4.2596e-05,3.89e-06,0.0,0 STARLINK-3140,1 49460U 21104BE  22327.72418425  .00000389  00000-0  42596-4 0  9990,2 49460  53.2169 214.9674 0002543  38.9040 321.2135 15.08832319 57315,6917.904,95.438,541.528,538.01,0.0
49460.0,STARLINK-3140,PAYLOAD,2022-11-24 02:55:09,15.08824583,0.0002611,53.2168,213.1832,36.162,323.9548,-2.3878e-05,-6.68e-06,0.0,0 STARLINK-3140,1 49460U 21104BE  22328.12163427 -.00000668  00000-0 -23878-4 0  9998,2 49460  53.2168 213.1832 0002611  36.1620 323.9548 15.08824583 57378,6917.928000000001,95.439,541.599,537.986,0.0
49460.0,STARLINK-3140,PAYLOAD,2022-11-24 15:38:13,15.08850105,0.0002566999999999,53.217,210.8041,33.2921,326.8232,-0.00025684,-4.375e-05,0.0,0 STARLINK-3140,1 49460U 21104BE  22328.65154617 -.00004375  00000-0 -25684-3 0  9992,2 49460  53.2170 210.8041 0002567  33.2921 326.8232 15.08850105 58540,6917.85,95.437,541.49,537.939,0.0
49460.0,STARLINK-3140,PAYLOAD,2022-11-25 01:10:32,15.08832797,0.0002611,53.2166,209.0202,37.0616,323.0556,8.8573e-05,1.121e-05,0.0,0 STARLINK-3140,1 49460U 21104BE  22329.04899122  .00001121  00000-0  88573-4 0  9994,2 49460  53.2166 209.0202 0002611  37.0616 323.0556 15.08832797 58609,6917.901999999999,95.438,541.5740000000002,537.961,0.0
49460.0,STARLINK-3140,PAYLOAD,2022-11-25 09:07:28,15.08838243,0.0002607,53.2166,207.5333,37.4239,322.6934,8.996799999999999e-05,1.144e-05,0.0,0 STARLINK-3140,1 49460U 21104BE  22329.38018851  .00001144  00000-0  89968-4 0  9997,2 49460  53.2166 207.5333 0002607  37.4239 322.6934 15.08838243 57568,6917.886,95.438,541.554,537.947,0.0
49460.0,STARLINK-3140,PAYLOAD,2022-11-25 15:29:00,15.08842108,0.0002605,53.2167,206.3437,37.7513,322.3661,0.00010077,1.316e-05,0.0,0 STARLINK-3140,1 49460U 21104BE  22329.64514639  .00001316  00000-0  10077-3 0  9996,2 49460  53.2167 206.3437 0002605  37.7513 322.3661 15.08842108 58691,6917.874,95.437,541.5409999999998,537.937,0.0
